{
  "norad_id": 67879,
  "name": "STARLINK-36818",
  "history": [
    {
      "epoch": "2026-03-28T18:09:44.949600Z",
      "apogee_km": 344.8153546849808,
      "perigee_km": 342.8091217153478,
      "latitude_deg": -6.869044888648703e-06,
      "longitude_deg": -77.53333179248774,
      "height_km": 347.2462462680416,
      "semi_major_axis_km": 6721.9492382001645,
      "eccentricity": 0.00014923,
      "inclination_deg": 97.2858,
      "raan_deg": 21.0766,
      "arg_perigee_deg": 105.4851,
      "mean_anomaly_deg": 254.6579,
      "mean_motion_rev_day": 15.75287835
    },
    {
      "epoch": "2026-03-29T04:50:06.483552Z",
      "apogee_km": 344.6124934856107,
      "perigee_km": 342.9535236274978,
      "latitude_deg": 7.818367592937347e-05,
      "longitude_deg": 122.40512251113122,
      "height_km": 347.01252426334366,
      "semi_major_axis_km": 6721.9200085565535,
      "eccentricity": 0.0001234,
      "inclination_deg": 97.2852,
      "raan_deg": 21.5431,
      "arg_perigee_deg": 94.3566,
      "mean_anomaly_deg": 265.7841,
      "mean_motion_rev_day": 15.7529811
    },
    {
      "epoch": "2026-03-30T02:10:50.221056Z",
      "apogee_km": 344.978291440405,
      "perigee_km": 342.777369344637,
      "latitude_deg": 1.677209542290104e-05,
      "longitude_deg": 162.27986340612932,
      "height_km": 346.57569675285373,
      "semi_major_axis_km": 6722.014830392521,
      "eccentricity": 0.00016371,
      "inclination_deg": 97.2855,
      "raan_deg": 22.4767,
      "arg_perigee_deg": 64.8288,
      "mean_anomaly_deg": 295.3147,
      "mean_motion_rev_day": 15.75264778
    },
    {
      "epoch": "2026-03-30T08:16:45.559200Z",
      "apogee_km": 345.2458669036887,
      "perigee_km": 342.45651068486677,
      "latitude_deg": 4.858650841278266e-05,
      "longitude_deg": 70.8153191392396,
      "height_km": 346.62969019851323,
      "semi_major_axis_km": 6721.988188794277,
      "eccentricity": 0.00020748,
      "inclination_deg": 97.2855,
      "raan_deg": 22.7432,
      "arg_perigee_deg": 73.9085,
      "mean_anomaly_deg": 286.2409,
      "mean_motion_rev_day": 15.75274143
    },
    {
      "epoch": "2026-03-30T22:00:03.918528Z",
      "apogee_km": 344.84287675304677,
      "perigee_km": 342.6402515851405,
      "latitude_deg": -7.07742537302862e-07,
      "longitude_deg": -134.97510405842615,
      "height_km": 347.0197455286015,
      "semi_major_axis_km": 6721.878564169094,
      "eccentricity": 0.00016384,
      "inclination_deg": 97.2861,
      "raan_deg": 23.3428,
      "arg_perigee_deg": 95.8541,
      "mean_anomaly_deg": 264.2911,
      "mean_motion_rev_day": 15.75312679
    },
    {
      "epoch": "2026-03-31T13:14:52.685952Z",
      "apogee_km": 345.2523321031231,
      "perigee_km": 342.40759568400244,
      "latitude_deg": -7.472288122896203e-05,
      "longitude_deg": -3.6374584817491797,
      "height_km": 346.3023380935306,
      "semi_major_axis_km": 6721.966963893562,
      "eccentricity": 0.0002116,
      "inclination_deg": 97.2865,
      "raan_deg": 24.0098,
      "arg_perigee_deg": 60.848,
      "mean_anomaly_deg": 299.2996,
      "mean_motion_rev_day": 15.75281604
    },
    {
      "epoch": "2026-04-01T10:35:35.203488Z",
      "apogee_km": 345.10158645196134,
      "perigee_km": 342.830859983158,
      "latitude_deg": 2.972376434934748e-05,
      "longitude_deg": 36.24175910655244,
      "height_km": 347.1432974521448,
      "semi_major_axis_km": 6722.103223217559,
      "eccentricity": 0.0001689,
      "inclination_deg": 97.2864,
      "raan_deg": 24.9428,
      "arg_perigee_deg": 90.5786,
      "mean_anomaly_deg": 269.5673,
      "mean_motion_rev_day": 15.75233707
    },
    {
      "epoch": "2026-04-02T14:02:11.106528Z",
      "apogee_km": 346.2217498381515,
      "perigee_km": 341.6023577283904,
      "latitude_deg": -1.1672139366079204e-06,
      "longitude_deg": -15.334988414397309,
      "height_km": 349.3873283782855,
      "semi_major_axis_km": 6722.04905378327,
      "eccentricity": 0.0003436,
      "inclination_deg": 97.2857,
      "raan_deg": 26.1427,
      "arg_perigee_deg": 177.0577,
      "mean_anomaly_deg": 183.0709,
      "mean_motion_rev_day": 15.75252748
    },
    {
      "epoch": "2026-04-03T19:00:21.189024Z",
      "apogee_km": 345.2071766569561,
      "perigee_km": 342.75494798782165,
      "latitude_deg": -1.5901030097655334e-05,
      "longitude_deg": -89.79973045997336,
      "height_km": 346.1793358425203,
      "semi_major_axis_km": 6722.118062322389,
      "eccentricity": 0.0001824,
      "inclination_deg": 97.286,
      "raan_deg": 27.4097,
      "arg_perigee_deg": 37.857,
      "mean_anomaly_deg": 322.2823,
      "mean_motion_rev_day": 15.75228491
    },
    {
      "epoch": "2026-04-04T19:24:01.402848Z",
      "apogee_km": 345.02516005240795,
      "perigee_km": 343.3271037552895,
      "latitude_deg": -1.1393272088187536e-05,
      "longitude_deg": -95.6522360908209,
      "height_km": 347.8439158215626,
      "semi_major_axis_km": 6722.313131903848,
      "eccentricity": 0.0001263,
      "inclination_deg": 97.2851,
      "raan_deg": 28.4766,
      "arg_perigee_deg": 126.1634,
      "mean_anomaly_deg": 233.9748,
      "mean_motion_rev_day": 15.75159926
    },
    {
      "epoch": "2026-04-05T07:35:51.792288Z",
      "apogee_km": 345.09862214664463,
      "perigee_km": 342.8157989527417,
      "latitude_deg": -7.776374697377727e-05,
      "longitude_deg": 81.42068903811156,
      "height_km": 347.5910953697462,
      "semi_major_axis_km": 6722.094210549692,
      "eccentricity": 0.0001698,
      "inclination_deg": 97.2858,
      "raan_deg": 29.0104,
      "arg_perigee_deg": 114.2002,
      "mean_anomaly_deg": 245.944,
      "mean_motion_rev_day": 15.75236875
    },
    {
      "epoch": "2026-04-05T18:16:12.131328Z",
      "apogee_km": 344.6395383665795,
      "perigee_km": 342.59209245900456,
      "latitude_deg": 1.0985986347958295e-05,
      "longitude_deg": -78.63546550155108,
      "height_km": 347.37362941112013,
      "semi_major_axis_km": 6721.752815412791,
      "eccentricity": 0.0001523,
      "inclination_deg": 97.2852,
      "raan_deg": 29.4773,
      "arg_perigee_deg": 125.2694,
      "mean_anomaly_deg": 234.8714,
      "mean_motion_rev_day": 15.75356885
    },
    {
      "epoch": "2026-04-06T01:53:36.714624Z",
      "apogee_km": 345.3439566786392,
      "perigee_km": 342.6255306455023,
      "latitude_deg": -5.122023796255478e-05,
      "longitude_deg": 167.03152555331783,
      "height_km": 347.3455295368999,
      "semi_major_axis_km": 6722.121743662071,
      "eccentricity": 0.0002022,
      "inclination_deg": 97.2851,
      "raan_deg": 29.8098,
      "arg_perigee_deg": 98.2754,
      "mean_anomaly_deg": 261.874,
      "mean_motion_rev_day": 15.75227197
    },
    {
      "epoch": "2026-04-07T19:03:33.988896Z",
      "apogee_km": 344.9241342515352,
      "perigee_km": 343.3040717357135,
      "latitude_deg": 1.1622096834113974e-05,
      "longitude_deg": -90.34725367941307,
      "height_km": 347.16923463047925,
      "semi_major_axis_km": 6722.251102993624,
      "eccentricity": 0.0001205,
      "inclination_deg": 97.2845,
      "raan_deg": 31.6103,
      "arg_perigee_deg": 82.1048,
      "mean_anomaly_deg": 278.0354,
      "mean_motion_rev_day": 15.75181728
    },
    {
      "epoch": "2026-04-08T14:54:10.264896Z",
      "apogee_km": 353.51492940395565,
      "perigee_km": 352.1112570715113,
      "latitude_deg": 8.0486014946671e-06,
      "longitude_deg": -27.94884563742166,
      "height_km": 356.4852254380343,
      "semi_major_axis_km": 6730.950093237733,
      "eccentricity": 0.00010427,
      "inclination_deg": 97.2851,
      "raan_deg": 32.4748,
      "arg_perigee_deg": 136.4818,
      "mean_anomaly_deg": 223.6528,
      "mean_motion_rev_day": 15.72129099
    },
    {
      "epoch": "2026-04-09T20:00:01.999008Z",
      "apogee_km": 369.8895175213447,
      "perigee_km": 367.85327038804917,
      "latitude_deg": 3.7251174881721365,
      "longitude_deg": -104.8229734106597,
      "height_km": 371.5981280083362,
      "semi_major_axis_km": 6747.008393954697,
      "eccentricity": 0.0001509,
      "inclination_deg": 97.2843,
      "raan_deg": 33.7354,
      "arg_perigee_deg": 92.5791,
      "mean_anomaly_deg": 271.2949,
      "mean_motion_rev_day": 15.66519792
    },
    {
      "epoch": "2026-04-10T12:00:02.000160Z",
      "apogee_km": 378.24229636764903,
      "perigee_km": 375.53488211148215,
      "latitude_deg": 22.215029455986326,
      "longitude_deg": -161.341550014885,
      "height_km": 379.0364012254053,
      "semi_major_axis_km": 6755.025589239565,
      "eccentricity": 0.0002004,
      "inclination_deg": 97.2844,
      "raan_deg": 34.4241,
      "arg_perigee_deg": 102.1368,
      "mean_anomaly_deg": 55.4548,
      "mean_motion_rev_day": 15.63731786
    },
    {
      "epoch": "2026-04-11T20:00:01.000224Z",
      "apogee_km": 394.4123403573476,
      "perigee_km": 392.0288224886872,
      "latitude_deg": 81.09998873491755,
      "longitude_deg": -158.52066745757193,
      "height_km": 405.500365094902,
      "semi_major_axis_km": 6771.357581423017,
      "eccentricity": 0.000176,
      "inclination_deg": 97.2846,
      "raan_deg": 35.7978,
      "arg_perigee_deg": 75.1195,
      "mean_anomaly_deg": 9.6713,
      "mean_motion_rev_day": 15.58077798
    },
    {
      "epoch": "2026-04-13T06:00:02.000160Z",
      "apogee_km": 411.87281593276566,
      "perigee_km": 409.70456884512896,
      "latitude_deg": 82.73187675991547,
      "longitude_deg": 11.127345376857468,
      "height_km": 423.2993290834967,
      "semi_major_axis_km": 6788.925692388947,
      "eccentricity": 0.00015969,
      "inclination_deg": 97.2844,
      "raan_deg": 37.2458,
      "arg_perigee_deg": 103.0487,
      "mean_anomaly_deg": 347.5475,
      "mean_motion_rev_day": 15.52033815
    }
  ]
}